{
  "norad_id": 55761,
  "name": "STARLINK-5611",
  "history": [
    {
      "epoch": "2026-03-28T16:24:21.091680",
      "apogee_km": 574.1235336002146,
      "perigee_km": 569.7825073734175,
      "latitude_deg": -42.908154490806325,
      "longitude_deg": -178.27656479994766,
      "semi_major_axis_km": 6950.090020486816,
      "eccentricity": 0.0003123,
      "inclination_deg": 70.0009,
      "raan_deg": 176.7526,
      "arg_perigee_deg": 276.026,
      "mean_anomaly_deg": 84.0543,
      "mean_motion_rev_day": 14.98363266
    }
  ]
}