{"fetched_at":"2026-03-30T06:02:59Z","count":15439,"tles":[{"name":"STARLINK-5611","line1":"1 55761U 23028W   26087.68357745 -.00006392  00000+0 -52795-3 0  9999","line2":"2 55761  70.0009 176.7526 0003123 276.0260  84.0543 14.98363266169376","category":"Starlink"}]}